H1 CPF 01  gfz 2022 05 26 12  6462 terrasarx 
H2 0702601  6201 31698    2022 05 26 12 59 42 2022 05 31 00 00 42   120 1 1  0 0 0
H9
10 0 59727  72702.000000  0   -4525728.241   3488216.207  -3856027.018
10 0 59727  72822.000000  0   -3973107.580   3298779.276  -4567114.673
10 0 59727  72942.000000  0   -3355308.944   3041739.536  -5198221.695
10 0 59727  73062.000000  0   -2684289.397   2720587.664  -5738393.908
10 0 59727  73182.000000  0   -1972830.415   2340130.114  -6178281.413
10 0 59727  73302.000000  0   -1234291.242   1906413.555  -6510289.897
10 0 59727  73422.000000  0    -482358.901   1426626.163  -6728699.263
10 0 59727  73542.000000  0     269201.568    908977.972  -6829752.028
10 0 59727  73662.000000  0    1006792.443    362562.425  -6811711.061
10 0 59727  73782.000000  0    1717224.507   -202800.169  -6674887.709
10 0 59727  73902.000000  0    2387947.499   -776735.158  -6421635.551
10 0 59727  74022.000000  0    3007267.222  -1348498.818  -6056314.786
10 0 59727  74142.000000  0    3564547.322  -1907174.179  -5585224.628
10 0 59727  74262.000000  0    4050393.134  -2441875.405  -5016506.566
10 0 59727  74382.000000  0    4456814.732  -2941959.080  -4360014.413
10 0 59727  74502.000000  0    4777363.484  -3397235.971  -3627153.614
10 0 59727  74622.000000  0    5007241.820  -3798179.338  -2830692.501
10 0 59727  74742.000000  0    5143383.466  -4136126.536  -1984545.704
10 0 59727  74862.000000  0    5184500.053  -4403467.764  -1103532.914
10 0 59727  74982.000000  0    5131093.238  -4593818.213   -203117.593
10 0 59727  75102.000000  0    4985430.134  -4702168.738    700869.827
10 0 59727  75222.000000  0    4751482.619  -4725009.521   1592518.525
10 0 59727  75342.000000  0    4434831.551  -4660423.386   2456126.436
10 0 59727  75462.000000  0    4042539.220  -4508146.954   3276484.856
10 0 59727  75582.000000  0    3582993.129  -4269598.386   4039153.356
10 0 59727  75702.000000  0    3065724.112  -3947870.675   4730718.926
10 0 59727  75822.000000  0    2501204.838  -3547690.179   5339033.406
10 0 59727  75942.000000  0    1900634.078  -3075343.513   5853425.752
10 0 59727  76062.000000  0    1275710.269  -2538572.995   6264885.854
10 0 59727  76182.000000  0     638400.916  -1946444.723   6566216.048
10 0 59727  76302.000000  0        711.850  -1309192.052   6752150.716
10 0 59727  76422.000000  0    -625538.582   -638036.546   6819442.938
10 0 59727  76542.000000  0   -1228937.424     55010.821   6766917.358
10 0 59727  76662.000000  0   -1798684.330    757364.216   6595489.370
10 0 59727  76782.000000  0   -2324784.339   1456090.784   6308150.148
10 0 59727  76902.000000  0   -2798223.716   2138147.807   5909917.757
10 0 59727  77022.000000  0   -3211125.928   2790626.131   5407755.393
10 0 59727  77142.000000  0   -3556886.160   3400996.334   4810456.121
10 0 59727  77262.000000  0   -3830281.377   3957352.309   4128494.665
10 0 59727  77382.000000  0   -4027553.167   4448648.522   3373848.218
10 0 59727  77502.000000  0   -4146461.551   4864925.479   2559787.840
10 0 59727  77622.000000  0   -4186307.615   5197516.962   1700642.977
10 0 59727  77742.000000  0   -4147924.542   5439234.020    811545.344
10 0 59727  77862.000000  0   -4033638.346   5584521.869    -91843.322
10 0 59727  77982.000000  0   -3847197.959   5629586.056   -993616.154
10 0 59727  78102.000000  0   -3593674.900   5572481.937  -1877912.018
10 0 59727  78222.000000  0   -3279336.026   5413165.303  -2729203.301
10 0 59727  78342.000000  0   -2911493.027   5153505.536  -3532574.132
10 0 59727  78462.000000  0   -2498334.540   4797258.964  -4273984.195
10 0 59727  78582.000000  0   -2048744.112   4350005.576  -4940512.036
10 0 59727  78702.000000  0   -1572109.483   3819052.368  -5520573.272
10 0 59727  78822.000000  0   -1078127.892   3213306.314  -6004114.063
10 0 59727  78942.000000  0    -576610.080   2543117.326  -6382776.042
10 0 59727  79062.000000  0     -77287.699   1820096.241  -6650028.843
10 0 59727  79182.000000  0     410371.094   1056912.815  -6801271.731
10 0 59727  79302.000000  0     877336.522    267075.909  -6833905.023
10 0 59727  79422.000000  0    1315180.794   -535301.462  -6747370.010
10 0 59727  79542.000000  0    1716226.086  -1335748.983  -6543155.930
10 0 59727  79662.000000  0    2073675.837  -2119692.780  -6224776.848
10 0 59727  79782.000000  0    2381728.819  -2872714.169  -5797718.303
10 0 59727  79902.000000  0    2635673.768  -3580811.790  -5269354.338
10 0 59727  80022.000000  0    2831963.623  -4230663.453  -4648830.382
10 0 59727  80142.000000  0    2968265.755  -4809877.970  -3946914.113
10 0 59727  80262.000000  0    3043488.816  -5307235.688  -3175819.802
10 0 59727  80382.000000  0    3057785.472  -5712914.994  -2349003.890
10 0 59727  80502.000000  0    3012529.928  -6018695.450  -1480933.521
10 0 59727  80622.000000  0    2910270.638  -6218133.726   -586833.238
10 0 59727  80742.000000  0    2754657.425  -6306706.892    317587.067
10 0 59727  80862.000000  0    2550345.219  -6281917.060   1216414.829
10 0 59727  80982.000000  0    2302877.562  -6143357.806   2093823.286
10 0 59727  81102.000000  0    2018551.311  -5892736.483   2934360.551
10 0 59727  81222.000000  0    1704266.985  -5533852.882   3723228.910
10 0 59727  81342.000000  0    1367368.405  -5072537.292   4446550.185
10 0 59727  81462.000000  0    1015476.642  -4516548.869   5091612.287
10 0 59727  81582.000000  0     656321.510  -3875437.408   5647093.894
10 0 59727  81702.000000  0     297573.959  -3160368.765   6103260.924
10 0 59727  81822.000000  0     -53315.182  -2383921.539   6452130.569
10 0 59727  81942.000000  0    -389267.395  -1559860.863   6687603.932
10 0 59727  82062.000000  0    -703716.969   -702892.227   6805567.242
10 0 59727  82182.000000  0    -990737.837    171602.444   6803960.334
10 0 59727  82302.000000  0   -1245154.555   1047841.280   6682810.339
10 0 59727  82422.000000  0   -1462635.183   1909926.659   6444230.899
10 0 59727  82542.000000  0   -1639765.205   2742132.922   6092387.793
10 0 59727  82662.000000  0   -1774101.561   3529193.805   5633430.497
10 0 59727  82782.000000  0   -1864205.249   4256584.469   5075390.494
10 0 59727  82902.000000  0   -1909652.874   4910794.809   4428047.756
10 0 59727  83022.000000  0   -1911026.253   5479587.946   3702764.052
10 0 59727  83142.000000  0   -1869880.136   5952238.013   2912286.352
10 0 59727  83262.000000  0   -1788689.371   6319741.248   2070522.672
10 0 59727  83382.000000  0   -1670775.372   6574996.560   1192294.511
10 0 59727  83502.000000  0   -1520213.156   6712949.642    293070.223
10 0 59727  83622.000000  0   -1341722.456   6730697.265   -611314.493
10 0 59727  83742.000000  0   -1140545.226   6627550.112  -1504945.183
10 0 59727  83862.000000  0    -922311.494   6405047.339  -2372120.178
10 0 59727  83982.000000  0    -692899.439   6066924.232  -3197632.820
10 0 59727  84102.000000  0    -458292.753   5619038.733  -3967040.113
10 0 59727  84222.000000  0    -224438.417   5069258.667  -4666915.348
10 0 59727  84342.000000  0       2891.595   4427311.248  -5285078.802
10 0 59727  84462.000000  0     218231.959   3704600.212  -5810803.085
10 0 59727  84582.000000  0     416545.738   2913993.618  -6234990.280
10 0 59727  84702.000000  0     593333.143   2069588.178  -6550317.828
10 0 59727  84822.000000  0     744726.270   1186456.479  -6751353.398
10 0 59727  84942.000000  0     867568.112    280379.814  -6834639.204
10 0 59727  85062.000000  0     959474.557   -632429.342  -6798745.081
10 0 59727  85182.000000  0    1018878.511  -1535611.493  -6644289.125
10 0 59727  85302.000000  0    1045055.860  -2412944.835  -6373926.928
10 0 59727  85422.000000  0    1038133.716  -3248629.004  -5992312.648
10 0 59727  85542.000000  0     999079.426  -4027567.410  -5506028.835
10 0 59727  85662.000000  0     929670.837  -4735639.916  -4923482.165
10 0 59727  85782.000000  0     832449.203  -5359961.403  -4254769.704
10 0 59727  85902.000000  0     710653.910  -5889123.886  -3511514.815
10 0 59727  86022.000000  0     568140.647  -6313415.063  -2706673.092
10 0 59727  86142.000000  0     409284.864  -6625008.653  -1854312.208
10 0 59727  86262.000000  0     238872.234  -6818122.175   -969367.209
10 0 59727  86382.000000  0      61978.283  -6889135.512    -67375.717
10 0 59728    102.000000  0    -116159.696  -6836667.333    835800.281
10 0 59728    222.000000  0    -290275.063  -6661608.023   1724260.705
10 0 59728    342.000000  0    -455205.458  -6367107.132   2582356.770
10 0 59728    462.000000  0    -606023.891  -5958514.127   3394976.594
10 0 59728    582.000000  0    -738163.244  -5443272.676   4147818.320
10 0 59728    702.000000  0    -847532.542  -4830776.491   4827644.678
10 0 59728    822.000000  0    -930621.092  -4132188.446   5422516.784
10 0 59728    942.000000  0    -984588.159  -3360227.792   5922002.975
10 0 59728   1062.000000  0   -1007336.743  -2528928.149   6317358.071
10 0 59728   1182.000000  0    -997569.015  -1653375.428   6601668.561
10 0 59728   1302.000000  0    -954823.495   -749431.675   6769967.343
10 0 59728   1422.000000  0    -879494.181    166554.090   6819316.134
10 0 59728   1542.000000  0    -772829.975   1078041.654   6748853.560
10 0 59728   1662.000000  0    -636913.588   1968597.874   6559809.460
10 0 59728   1782.000000  0    -474621.150   2822192.486   6255484.620
10 0 59728   1902.000000  0    -289563.396   3623486.856   5841196.853
10 0 59728   2022.000000  0     -86009.688   4358112.167   5324193.197
10 0 59728   2142.000000  0     131204.659   5012931.253   4713529.353
10 0 59728   2262.000000  0     356786.171   5576281.970   4019916.772
10 0 59728   2382.000000  0     585103.113   6038191.247   3255537.171
10 0 59728   2502.000000  0     810315.512   6390563.686   2433835.318
10 0 59728   2622.000000  0    1026514.624   6627336.645   1569276.695
10 0 59728   2742.000000  0    1227864.426   6744590.100    677087.456
99
